[{"OBJECT_NAME":"SKYSAT-C13","OBJECT_ID":"2018-099AW","EPOCH":"2026-03-09T15:57:39.212352","MEAN_MOTION":15.7671015,"ECCENTRICITY":0.00039856,"INCLINATION":96.9402,"RA_OF_ASC_NODE":116.3001,"ARG_OF_PERICENTER":199.1701,"MEAN_ANOMALY":160.9417,"EPHEMERIS_TYPE":0,"CLASSIFICATION_TYPE":"U","NORAD_CAT_ID":43802,"ELEMENT_SET_NO":999,"REV_AT_EPOCH":40716,"BSTAR":0.00055859913,"MEAN_MOTION_DOT":0.00089861,"MEAN_MOTION_DDOT":0},{"OBJECT_NAME":"STARLINK-36756","OBJECT_ID":"2026-032W","EPOCH":"2026-03-09T21:53:16.589184","MEAN_MOTION":15.7527509,"ECCENTRICITY":9.159e-5,"INCLINATION":97.2843,"RA_OF_ASC_NODE":255.4874,"ARG_OF_PERICENTER":102.7886,"MEAN_ANOMALY":257.3482,"EPHEMERIS_TYPE":0,"CLASSIFICATION_TYPE":"U","NORAD_CAT_ID":67817,"ELEMENT_SET_NO":999,"REV_AT_EPOCH":481,"BSTAR":0.0015459296,"MEAN_MOTION_DOT":0.00237869,"MEAN_MOTION_DDOT":0}]
